[{"OBJECT_ID":"1999-025AMM","OBJECT_NAME":"FENGYUN 1C DEB","NORAD_CAT_ID":"30606","OBJECT_TYPE":"DEBRIS","PERIOD":"99.767","INCLINATION":"98.2282","ECCENTRICITY":"0.02557430","MEAN_MOTION":"14.43357400","TLE_LINE1":"1 30606U 99025AMM 21272.38194772  .00000404  00000-0  91255-4 0  9999","TLE_LINE2":"2 30606  98.2282 312.4643 0255743 173.5332 255.9784 14.43357400770455"},{"OBJECT_ID":"1999-025AMN","OBJECT_NAME":"FENGYUN 1C DEB","NORAD_CAT_ID":"30607","OBJECT_TYPE":"DEBRIS","PERIOD":"100.415","INCLINATION":"98.9080","ECCENTRICITY":"0.00426610","MEAN_MOTION":"14.34046633","TLE_LINE1":"1 30607U 99025AMN 21271.29506394  .00002585  00000-0  93211-3 0  9991","TLE_LINE2":"2 30607  98.9080  23.8681 0042661 290.5941  69.0669 14.34046633757918"},{"OBJECT_ID":"1999-025AMP","OBJECT_NAME":"FENGYUN 1C DEB","NORAD_CAT_ID":"30608","OBJECT_TYPE":"DEBRIS","PERIOD":"101.465","INCLINATION":"98.8761","ECCENTRICITY":"0.00124660","MEAN_MOTION":"14.19211276","TLE_LINE1":"1 30608U 99025AMP 21272.07930449  .00000803  00000-0  40463-3 0  9993","TLE_LINE2":"2 30608  98.8761 316.5008 0012466 306.6502  73.8810 14.19211276756045"},{"OBJECT_ID":"1999-025AMQ","OBJECT_NAME":"FENGYUN 1C DEB","NORAD_CAT_ID":"30609","OBJECT_TYPE":"DEBRIS","PERIOD":"103.123","INCLINATION":"98.5088","ECCENTRICITY":"0.01465120","MEAN_MOTION":"13.96397104","TLE_LINE1":"1 30609U 99025AMQ 21272.39397227  .00001235  00000-0  84360-3 0  9994","TLE_LINE2":"2 30609  98.5088 262.4537 0146512  50.7623 310.6440 13.96397104742799"},{"OBJECT_ID":"1999-025AMS","OBJECT_NAME":"FENGYUN 1C DEB","NORAD_CAT_ID":"30611","OBJECT_TYPE":"DEBRIS","PERIOD":"94.889","INCLINATION":"98.6259","ECCENTRICITY":"0.01502030","MEAN_MOTION":"15.17560645","TLE_LINE1":"1 30611U 99025AMS 21271.37867178  .00007458  00000-0  28040-3 0  9997","TLE_LINE2":"2 30611  98.6259  58.9746 0150203 319.8754  39.1459 15.17560645793975"},{"OBJECT_ID":"1999-025AMT","OBJECT_NAME":"FENGYUN 1C DEB","NORAD_CAT_ID":"30612","OBJECT_TYPE":"DEBRIS","PERIOD":"98.706","INCLINATION":"99.0964","ECCENTRICITY":"0.01147490","MEAN_MOTION":"14.58873084","TLE_LINE1":"1 30612U 99025AMT 21272.35067670  .00001452  00000-0  29483-3 0  9996","TLE_LINE2":"2 30612  99.0964  48.0666 0114749  83.4243 306.1218 14.58873084777179"},{"OBJECT_ID":"1999-025AMU","OBJECT_NAME":"FENGYUN 1C DEB","NORAD_CAT_ID":"30613","OBJECT_TYPE":"DEBRIS","PERIOD":"99.609","INCLINATION":"98.4050","ECCENTRICITY":"0.02187650","MEAN_MOTION":"14.45652134","TLE_LINE1":"1 30613U 99025AMU 21272.15633112  .00001128  00000-0  24946-3 0  9994","TLE_LINE2":"2 30613  98.4050 347.6160 0218765 293.7207  64.1171 14.45652134769565"},{"OBJECT_ID":"1999-025AMX","OBJECT_NAME":"FENGYUN 1C DEB","NORAD_CAT_ID":"30616","OBJECT_TYPE":"DEBRIS","PERIOD":"108.172","INCLINATION":"98.6458","ECCENTRICITY":"0.03952380","MEAN_MOTION":"13.31207267","TLE_LINE1":"1 30616U 99025AMX 21271.47665032  .00000692  00000-0  98470-3 0  9995","TLE_LINE2":"2 30616  98.6458 186.2885 0395238 135.3857 227.9806 13.31207267712295"},{"OBJECT_ID":"1999-025ANA","OBJECT_NAME":"FENGYUN 1C DEB","NORAD_CAT_ID":"30619","OBJECT_TYPE":"DEBRIS","PERIOD":"100.300","INCLINATION":"98.4733","ECCENTRICITY":"0.02298540","MEAN_MOTION":"14.35699299","TLE_LINE1":"1 30619U 99025ANA 21272.38959378  .00000205  00000-0  66464-4 0  9997","TLE_LINE2":"2 30619  98.4733 311.1285 0229854 340.5225  18.7284 14.35699299768869"},{"OBJECT_ID":"1999-025ANC","OBJECT_NAME":"FENGYUN 1C DEB","NORAD_CAT_ID":"30621","OBJECT_TYPE":"DEBRIS","PERIOD":"103.560","INCLINATION":"98.6262","ECCENTRICITY":"0.01624260","MEAN_MOTION":"13.90496783","TLE_LINE1":"1 30621U 99025ANC 21271.50310861  .00000966  00000-0  72796-3 0  9999","TLE_LINE2":"2 30621  98.6262 286.6505 0162426 245.2335 270.6474 13.90496783741613"},{"OBJECT_ID":"1999-025AND","OBJECT_NAME":"FENGYUN 1C DEB","NORAD_CAT_ID":"30622","OBJECT_TYPE":"DEBRIS","PERIOD":"102.561","INCLINATION":"101.0300","ECCENTRICITY":"0.01056230","MEAN_MOTION":"14.04043692","TLE_LINE1":"1 30622U 99025AND 21271.49553168  .00001621  00000-0  10113-2 0  9990","TLE_LINE2":"2 30622 101.0300 268.3745 0105623 103.2384  48.4140 14.04043692470828"},{"OBJECT_ID":"1999-025ANE","OBJECT_NAME":"FENGYUN 1C DEB","NORAD_CAT_ID":"30623","OBJECT_TYPE":"DEBRIS","PERIOD":"108.475","INCLINATION":"98.8321","ECCENTRICITY":"0.04079450","MEAN_MOTION":"13.27499867","TLE_LINE1":"1 30623U 99025ANE 21271.27461331  .00000124  00000-0  23005-3 0  9999","TLE_LINE2":"2 30623  98.8321 285.2679 0407945 291.5141  77.8627 13.27499867708185"},{"OBJECT_ID":"1999-025ANF","OBJECT_NAME":"FENGYUN 1C DEB","NORAD_CAT_ID":"30624","OBJECT_TYPE":"DEBRIS","PERIOD":"101.238","INCLINATION":"98.9388","ECCENTRICITY":"0.00388100","MEAN_MOTION":"14.22389483","TLE_LINE1":"1 30624U 99025ANF 21271.45991010  .00002016  00000-0  91893-3 0  9994","TLE_LINE2":"2 30624  98.9388 283.0598 0038810 104.9674 255.5804 14.22389483754568"},{"OBJECT_ID":"1999-025ANG","OBJECT_NAME":"FENGYUN 1C DEB","NORAD_CAT_ID":"30625","OBJECT_TYPE":"DEBRIS","PERIOD":"102.182","INCLINATION":"98.9192","ECCENTRICITY":"0.00858880","MEAN_MOTION":"14.09246966","TLE_LINE1":"1 30625U 99025ANG 21271.51606867  .00001813  00000-0  10315-2 0  9998","TLE_LINE2":"2 30625  98.9192 192.4093 0085888  20.3132 340.1421 14.09246966748845"},{"OBJECT_ID":"1999-025ANJ","OBJECT_NAME":"FENGYUN 1C DEB","NORAD_CAT_ID":"30627","OBJECT_TYPE":"DEBRIS","PERIOD":"96.962","INCLINATION":"98.9053","ECCENTRICITY":"0.00533430","MEAN_MOTION":"14.85123636","TLE_LINE1":"1 30627U 99025ANJ 21272.22603476  .00009005  00000-0  10330-2 0  9990","TLE_LINE2":"2 30627  98.9053   4.3482 0053343 205.4033 154.4555 14.85123636779168"},{"OBJECT_ID":"1999-025ANK","OBJECT_NAME":"FENGYUN 1C DEB","NORAD_CAT_ID":"30628","OBJECT_TYPE":"DEBRIS","PERIOD":"100.296","INCLINATION":"99.3474","ECCENTRICITY":"0.00387570","MEAN_MOTION":"14.35750074","TLE_LINE1":"1 30628U 99025ANK 21272.23274716  .00001486  00000-0  52708-3 0  9994","TLE_LINE2":"2 30628  99.3474   5.2071 0038757  99.6410 260.9154 14.35750074763516"},{"OBJECT_ID":"1999-025ANL","OBJECT_NAME":"FENGYUN 1C DEB","NORAD_CAT_ID":"30629","OBJECT_TYPE":"DEBRIS","PERIOD":"100.846","INCLINATION":"99.2594","ECCENTRICITY":"0.00118250","MEAN_MOTION":"14.27923302","TLE_LINE1":"1 30629U 99025ANL 21272.38474653  .00001618  00000-0  67244-3 0  9991","TLE_LINE2":"2 30629  99.2594 223.6759 0011825   5.4399 120.1110 14.27923302758718"},{"OBJECT_ID":"1999-025ANM","OBJECT_NAME":"FENGYUN 1C DEB","NORAD_CAT_ID":"30630","OBJECT_TYPE":"DEBRIS","PERIOD":"101.838","INCLINATION":"99.0067","ECCENTRICITY":"0.00293570","MEAN_MOTION":"14.14012111","TLE_LINE1":"1 30630U 99025ANM 21271.31319314  .00000486  00000-0  27835-3 0  9991","TLE_LINE2":"2 30630  99.0067  28.4540 0029357 107.8372 276.8740 14.14012111754491"},{"OBJECT_ID":"1999-025ANN","OBJECT_NAME":"FENGYUN 1C DEB","NORAD_CAT_ID":"30631","OBJECT_TYPE":"DEBRIS","PERIOD":"100.753","INCLINATION":"99.0686","ECCENTRICITY":"0.00478540","MEAN_MOTION":"14.29240308","TLE_LINE1":"1 30631U 99025ANN 21272.42802293  .00002367  00000-0  93784-3 0  9994","TLE_LINE2":"2 30631  99.0686  89.1854 0047854  82.0242 278.6365 14.29240308758318"},{"OBJECT_ID":"1999-025ANP","OBJECT_NAME":"FENGYUN 1C DEB","NORAD_CAT_ID":"30632","OBJECT_TYPE":"DEBRIS","PERIOD":"101.085","INCLINATION":"98.8351","ECCENTRICITY":"0.00294840","MEAN_MOTION":"14.24539949","TLE_LINE1":"1 30632U 99025ANP 21271.17757597  .00001024  00000-0  45880-3 0  9995","TLE_LINE2":"2 30632  98.8351 345.3986 0029484  35.2813 353.2510 14.24539949756284"},{"OBJECT_ID":"1999-025ANQ","OBJECT_NAME":"FENGYUN 1C DEB","NORAD_CAT_ID":"30633","OBJECT_TYPE":"DEBRIS","PERIOD":"103.034","INCLINATION":"98.4351","ECCENTRICITY":"0.01378190","MEAN_MOTION":"13.97591926","TLE_LINE1":"1 30633U 99025ANQ 21272.13192223  .00000235  00000-0  18026-3 0  9997","TLE_LINE2":"2 30633  98.4351 229.6812 0137819 256.6810 166.8127 13.97591926745496"},{"OBJECT_ID":"1999-025ANR","OBJECT_NAME":"FENGYUN 1C DEB","NORAD_CAT_ID":"30634","OBJECT_TYPE":"DEBRIS","PERIOD":"103.269","INCLINATION":"99.2103","ECCENTRICITY":"0.01517460","MEAN_MOTION":"13.94410918","TLE_LINE1":"1 30634U 99025ANR 21272.38445954  .00001408  00000-0  99137-3 0  9992","TLE_LINE2":"2 30634  99.2103 215.6606 0151746 350.8569 125.7151 13.94410918742542"},{"OBJECT_ID":"1999-025ANT","OBJECT_NAME":"FENGYUN 1C DEB","NORAD_CAT_ID":"30636","OBJECT_TYPE":"DEBRIS","PERIOD":"95.009","INCLINATION":"98.7337","ECCENTRICITY":"0.00495390","MEAN_MOTION":"15.15647043","TLE_LINE1":"1 30636U 99025ANT 21272.36232190  .00022989  00000-0  11735-2 0  9992","TLE_LINE2":"2 30636  98.7337  52.5159 0049539  37.6054 322.8622 15.15647043787989"},{"OBJECT_ID":"1999-025ANU","OBJECT_NAME":"FENGYUN 1C DEB","NORAD_CAT_ID":"30637","OBJECT_TYPE":"DEBRIS","PERIOD":"98.088","INCLINATION":"98.9363","ECCENTRICITY":"0.00847310","MEAN_MOTION":"14.68071669","TLE_LINE1":"1 30637U 99025ANU 21272.13398965  .00002772  00000-0  46774-3 0  9991","TLE_LINE2":"2 30637  98.9363 325.3911 0084731 340.3966  73.4018 14.68071669776334"},{"OBJECT_ID":"1999-025ANW","OBJECT_NAME":"FENGYUN 1C DEB","NORAD_CAT_ID":"30639","OBJECT_TYPE":"DEBRIS","PERIOD":"102.086","INCLINATION":"99.0511","ECCENTRICITY":"0.00874480","MEAN_MOTION":"14.10575591","TLE_LINE1":"1 30639U 99025ANW 21272.16563199  .00001276  00000-0  71573-3 0  9992","TLE_LINE2":"2 30639  99.0511 336.9763 0087448 332.1518  27.4986 14.10575591750083"},{"OBJECT_ID":"1999-025ANX","OBJECT_NAME":"FENGYUN 1C DEB","NORAD_CAT_ID":"30640","OBJECT_TYPE":"DEBRIS","PERIOD":"102.507","INCLINATION":"99.1869","ECCENTRICITY":"0.00917650","MEAN_MOTION":"14.04776242","TLE_LINE1":"1 30640U 99025ANX 21271.08441181  .00000644  00000-0  41394-3 0  9996","TLE_LINE2":"2 30640  99.1869 303.8684 0091765  72.5176 344.1139 14.04776242748118"}]